GALAXY 25 (G-25)    [PM]
1 24812C 97026A   22090.75993056  .00000087  00000-0  00000-0 0   905
2 24812   3.4981  84.4245 0004326 315.7884 128.5756  1.00270743    11
GALAXY 25 (G-25)        
1 24812C 97026A   22094.00000000  .00000087  00000-0  00000-0 0   949
2 24812   3.5076  84.3551 0004450 307.5376 226.5091  1.00273051    15
GALAXY 25 (G-25)        
1 24812C 97026A   22097.00000000  .00000087  00000-0  00000-0 0   975
2 24812   3.5162  84.3411 0004534 310.6520 226.3764  1.00273824    18
INTELSAT 5 (IS-5)       
1 24916C 97046A   22094.00000000  .00000177  00000-0  00000-0 0   946
2 24916   7.0725  61.5584 0001419 117.6807 199.7123  1.00146373    17
INTELSAT 5 (IS-5)       
1 24916C 97046A   22097.00000000  .00000171  00000-0  00000-0 0   976
2 24916   7.0791  61.5494 0001470 107.5446 211.4929  1.00147600    14
GALAXY 11 (G-11)        
1 26038C 99071A   22090.00000000 -.00000072  00000-0  00000-0 0   900
2 26038   2.8032  88.7446 0000490 118.5573 247.9228  1.00270986    14
GALAXY 11 (G-11)        
1 26038C 99071A   22094.00000000 -.00000072  00000-0  00000-0 0   948
2 26038   2.8138  88.6274 0000497 158.7793 211.7681  1.00271926    13
INTELSAT 9 (IS-9)   [PM]
1 26451C 00043A   22092.98008102 -.00000191  00000-0  00000-0 0   924
2 26451   7.0555  61.7238 0004040 332.7221  99.6648  1.00273148    16
INTELSAT 9 (IS-9)       
1 26451C 00043A   22094.00000000 -.00000191  00000-0  00000-0 0   940
2 26451   7.0582  61.7207 0004357 331.7984 108.7775  1.00271991    15
INTELSAT 9 (IS-9)       
1 26451C 00043A   22097.00000000 -.00000191  00000-0  00000-0 0   976
2 26451   7.0648  61.7143 0004520 332.9441 110.6042  1.00270630    18
INTELSAT 1R (IS-1R)     
1 26608C 00072A   22090.00000000 -.00000047  00000-0  00000-0 0   908
2 26608   4.2632  80.7725 0001063  12.0921 252.5526  1.00269869    14
INTELSAT 1R (IS-1R)     
1 26608C 00072A   22094.00000000 -.00000047  00000-0  00000-0 0   946
2 26608   4.2758  80.7127 0000776   6.5872 262.0683  1.00271334    12
INTELSAT 10 (IS-10)     
1 26766C 01019A   22094.00000000  .00000127  00000-0  00000-0 0   941
2 26766   5.4045  73.9573 0002416 287.4590   8.6707  1.00270892    17
INTELSAT 10 (IS-10) [PM]
1 26766C 01019A   22096.90517361  .00000127  00000-0  00000-0 0   967
2 26766   5.4121  73.9438 0002842 283.5437 341.3404  1.00269491    16
INTELSAT 10 (IS-10)     
1 26766C 01019A   22097.00000000  .00000127  00000-0  00000-0 0   977
2 26766   5.4122  73.9458 0002578 290.7200   8.3970  1.00268395    13
INTELSAT 901            
1 26824C 01024A   22094.00000000 -.00000117  00000-0  00000-0 0   942
2 26824   0.0332  79.2973 0000904 278.4825 167.0091  1.00272153    14
INTELSAT 901            
1 26824C 01024A   22097.00000000 -.00000118  00000-0  00000-0 0   979
2 26824   0.0355  70.0178 0000909 302.3610 155.3732  1.00272008    10
INTELSAT 902            
1 26900C 01039A   22094.00000000 -.00000192  00000-0  00000-0 0   946
2 26900   2.2193  89.7227 0003147 294.2740 118.1893  1.00271889    12
INTELSAT 902        [PM]
1 26900C 01039A   22096.58562500 -.00000192  00000-0  00000-0 0   961
2 26900   2.2270  89.7016 0003049 288.7440 337.1234  1.00272284    12
INTELSAT 902            
1 26900C 01039A   22097.00000000 -.00000192  00000-0  00000-0 0   972
2 26900   2.2281  89.7127 0003152 296.3729 119.0652  1.00272827    11
INTELSAT 904            
1 27380C 02007A   22094.00000000 -.00000123  00000-0  00000-0 0   949
2 27380   3.0528  86.6595 0003283 303.1263 133.0063  1.00272178    18
INTELSAT 904        [PM]
1 27380C 02007A   22096.33401620 -.00000123  00000-0  00000-0 0   962
2 27380   3.0614  71.9211 0003157 280.6485 292.7690  1.00272634    17
INTELSAT 904            
1 27380C 02007A   22097.00000000 -.00000123  00000-0  00000-0 0   975
2 27380   3.0615  86.6466 0003335 307.0462 132.0576  1.00271600    11
INTELSAT 905        [PM]
1 27438C 02027A   22087.75799769 -.00000094  00000-0  00000-0 0   875
2 27438   2.8585  87.5729 0002156 280.9770  65.9553  1.00272329    19
INTELSAT 905            
1 27438C 02027A   22094.00000000 -.00000094  00000-0  00000-0 0   942
2 27438   2.8742  87.4182 0002708 289.4300 150.9479  1.00272389    10
INTELSAT 905            
1 27438C 02027A   22097.00000000 -.00000094  00000-0  00000-0 0   978
2 27438   2.8828  87.4057 0002713 293.9732 149.3790  1.00271999    15
GALAXY 3C (G-3C)        
1 27445C 02030A   22090.00000000 -.00000124  00000-0  00000-0 0   900
2 27445   0.0188  66.9736 0001824 258.5995 127.7181  1.00267359    17
GALAXY 3C (G-3C)        
1 27445C 02030A   22094.00000000 -.00000091  00000-0  00000-0 0   941
2 27445   0.0074 109.0305 0001998 217.4265 130.7567  1.00270120    10
INTELSAT 906            
1 27513C 02041A   22094.00000000  .00000105  00000-0  00000-0 0   944
2 27513   1.8865  91.2570 0004084 290.1546 235.0147  1.00272798    14
INTELSAT 906        [PM]
1 27513C 02041A   22096.24929398  .00000105  00000-0  00000-0 0   964
2 27513   1.8933  91.2261 0003969 289.8153 327.3584  1.00271242    10
INTELSAT 906            
1 27513C 02041A   22097.00000000  .00000105  00000-0  00000-0 0   970
2 27513   1.8955  91.2415 0004205 291.9006 236.2499  1.00271849    16
INTELSAT 906        [PM]
1 27513C 02041A   22097.55325232  .00000105  00000-0  00000-0 0   977
2 27513   1.8971  91.2491 0003902 294.1497  73.7074  1.00271707    16
GALAXY 12 (G-12)        
1 27715C 03013B   22094.00000000  .00000149  00000-0  00000-0 0   946
2 27715   3.0863  86.2620 0001635 296.6334  40.3822  1.00273152    17
GALAXY 12 (G-12)        
1 27715C 03013B   22097.00000000  .00000149  00000-0  00000-0 0   972
2 27715   3.0947  86.2465 0001580 295.9235  44.0707  1.00271369    19
GALAXY 12 (G-12)    [PM]
1 27715C 03013B   22102.58438657  .00000149  00000-0  00000-0 0  1022
2 27715   3.1042  86.2456 0002612 296.1657 259.7205  1.00271612    13
GALAXY 23 (G-23)        
1 27854C 03034A   22094.00000000  .00000103  00000-0  00000-0 0   943
2 27854   0.0241 249.4205 0002996 127.8848  53.9782  1.00274013    18
GALAXY 23 (G-23)    [PM]
1 27854C 03034A   22096.71034722  .00000103  00000-0  00000-0 0   963
2 27854   0.0172 242.9919 0002955 134.7493 311.9473  1.00271485    13
GALAXY 23 (G-23)        
1 27854C 03034A   22097.00000000  .00000103  00000-0  00000-0 0   979
2 27854   0.0161 240.9788 0002954 136.3629  56.9073  1.00271418    19
GALAXY 13               
1 27954C 03044A   22094.00000000  .00000124  00000-0  00000-0 0   948
2 27954   0.0406  88.4425 0000979 235.2110 101.6032  1.00271295    10
GALAXY 13               
1 27954C 03044A   22097.00000000  .00000138  00000-0  00000-0 0   979
2 27954   0.0436  88.4191 0001051 134.7378 205.0748  1.00295895    19
GALAXY 13           [PM]
1 27954C 03044A   22099.71771991  .00000138  00000-0  00000-0 0   995
2 27954   0.0505  85.7426 0002048  92.7594 150.8033  1.00270566    19
INTELSAT 10-02          
1 28358C 04022A   22090.00000000  .00000074  00000-0  00000-0 0   900
2 28358   0.0210 245.0835 0000891 139.1735 163.0853  1.00270161    10
INTELSAT 10-02          
1 28358C 04022A   22094.00000000  .00000074  00000-0  00000-0 0   948
2 28358   0.0147 255.3375 0000937 120.5791 175.3817  1.00271391    11
GALAXY 28 (G-28)        
1 28702C 05022A   22090.00000000 -.00000095  00000-0  00000-0 0   908
2 28702   0.0244 271.1855 0002407 106.0660  82.0859  1.00272175    10
GALAXY 28 (G-28)        
1 28702C 05022A   22094.00000000 -.00000095  00000-0  00000-0 0   946
2 28702   0.0140 281.8648 0002542  96.7787  84.6440  1.00272219    11
GALAXY 28 (G-28)    [PM]
1 28702C 05022A   22096.50037037 -.00003598  00000-0  00000-0 0   966
2 28702   0.0036 261.2789 0002572  86.3521 298.2465  1.00274029    18
GALAXY 14 (G-14)        
1 28790C 05030A   22094.00000000  .00000246  00000-0  00000-0 0   949
2 28790   1.0748  92.7849 0001970 273.5216 218.8873  1.00275165    15
GALAXY 14 (G-14)    [PM]
1 28790C 05030A   22095.68055556  .00000246  00000-0  00000-0 0   951
2 28790   1.0798  92.7683 0002119 264.5741 114.4997  1.00270371    17
GALAXY 14 (G-14)        
1 28790C 05030A   22097.00000000  .00000246  00000-0  00000-0 0   975
2 28790   1.0836  92.7861 0002173 267.6422 227.7098  1.00271002    10
GALAXY 15 (G-15)        
1 28884C 05041A   22094.00000000  .00000135  00000-0  00000-0 0   942
2 28884   0.0501  63.9649 0001725 305.1387  50.1647  1.00272913    16
GALAXY 15 (G-15)        
1 28884C 05041A   22097.00000000  .00000169  00000-0  00000-0 0   975
2 28884   0.0531  76.7093 0001730 296.3025  49.2340  1.00274077    12
GALAXY 15 (G-15)    [PM]
1 28884C 05041A   22097.62023148  .00000169  00000-0  00000-0 0   971
2 28884   0.0543  79.0267 0001779 286.6226 280.4968  1.00270026    17
GALAXY 16 (G-16)        
1 29236C 06023A   22094.00000000 -.00000037  00000-0  00000-0 0   947
2 29236   0.0293 264.1959 0002605 114.4198  74.6713  1.00272914    10
GALAXY 16 (G-16)        
1 29236C 06023A   22097.00000000 -.00000037  00000-0  00000-0 0   973
2 29236   0.0196 260.2038 0002623 115.3321  80.7032  1.00266150    12
GALAXY 16 (G-16)    [PM]
1 29236C 06023A   22097.04232639 -.00000037  00000-0  00000-0 0   972
2 29236   0.0146 235.9514 0002671 114.8864 120.6809  1.00273196    18
GALAXY 17 (G-17)        
1 31307C 07016B   22094.00000000 -.00000088  00000-0  00000-0 0   948
2 31307   0.0465  50.6459 0003092 327.6302  83.0162  1.00272555    15
GALAXY 17 (G-17)    [PM]
1 31307C 07016B   22096.46743056 -.00000083  00000-0  00000-0 0   962
2 31307   0.0453  56.5086 0002762 289.5072 285.9756  1.00272961    19
GALAXY 17 (G-17)        
1 31307C 07016B   22097.00000000 -.00000084  00000-0  00000-0 0   970
2 31307   0.0440  66.5958 0002872 292.5484 105.0974  1.00272985    17
INTELSAT 11 (IS-11)     
1 32253C 07044B   22094.00000000 -.00004111  00000-0  00000-0 0   941
2 32253   0.0055 248.4738 0002087 140.6881 120.1392  1.00272083    10
